OBJECT_NAME,OBJECT_ID,EPOCH,MEAN_MOTION,ECCENTRICITY,INCLINATION,RA_OF_ASC_NODE,ARG_OF_PERICENTER,MEAN_ANOMALY,EPHEMERIS_TYPE,CLASSIFICATION_TYPE,NORAD_CAT_ID,ELEMENT_SET_NO,REV_AT_EPOCH,BSTAR,MEAN_MOTION_DOT,MEAN_MOTION_DDOT
ELEKTRO-L 2,2015-074A,2026-07-20T09:38:18.214080,1.00272287,.00008326,6.7756,70.1150,228.3912,129.7535,0,U,41105,999,3883,0,-.123E-5,0
COSMOS 2513,2015-075A,2026-07-19T04:32:21.417792,1.00273427,.00021822,0.0617,103.7293,343.7867,357.7937,0,U,41121,999,3886,0,-.144E-5,0
EXPRESS-AMU1,2015-082A,2026-07-20T11:35:14.701056,1.00268510,.00025502,0.0227,58.2089,60.1558,29.8056,0,U,41191,999,3860,0,0,0
GAOFEN-4,2015-083A,2026-07-20T06:47:15.871776,1.00270897,.00041678,0.4407,83.8785,121.8602,299.8332,0,U,41194,999,3886,0,-.337E-5,0
BELINTERSAT-1,2016-001A,2026-07-20T11:39:44.269920,1.00275220,.00016049,0.0390,242.4497,194.6138,87.6731,0,U,41238,999,3857,0,.105E-5,0
IRNSS-1E,2016-003A,2026-07-20T14:09:53.351712,1.00275464,.00193048,33.3040,59.2648,176.2872,27.0964,0,U,41241,999,3841,0,-.317E-5,0
EUTELSAT 9B,2016-005A,2026-07-20T08:02:19.917600,1.00272952,.00012455,0.0493,69.1995,42.0310,316.4412,0,U,41310,999,3844,0,.6E-6,0
SES-9,2016-013A,2026-07-20T14:23:07.799712,1.00271745,.00023084,0.0172,329.4513,136.6189,156.3850,0,U,41380,999,3777,0,-.346E-5,0
EUTELSAT 65 WEST A,2016-014A,2026-07-20T11:06:32.453568,1.00272614,.00023141,0.0870,298.8240,174.8835,285.9753,0,U,41382,999,3785,0,-.278E-5,0
IRNSS-1F,2016-015A,2026-07-19T21:53:07.672704,1.00268750,.00177768,5.4285,96.0279,179.7253,22.6585,0,U,41384,999,3799,0,.152E-5,0
BEIDOU-2 IGSO-6,2016-021A,2026-06-26T02:38:38.671584,1.00258926,.0057558,60.2385,37.9495,231.0163,137.2672,0,U,41434,999,3757,0,-.145E-5,0
IRNSS-1G,2016-027A,2026-07-20T12:02:02.952384,1.00268307,.00059192,5.2755,96.7036,13.1358,138.5881,0,U,41469,999,3751,0,-.339E-5,0
JCSAT-2B,2016-028A,2026-07-20T14:23:38.729184,1.00270697,.00010553,0.0182,65.5054,47.0582,195.7139,0,U,41471,999,3746,0,-.166E-5,0
THAICOM 8,2016-031A,2026-07-20T10:04:53.164992,1.00272017,.00030652,0.0607,36.9659,39.5814,91.3537,0,U,41552,999,3705,0,-.123E-5,0
INTELSAT 31 (IS-31),2016-035A,2026-07-20T10:57:55.778976,1.00272898,.00009396,0.0345,255.3312,57.9836,54.3526,0,U,41581,999,3701,0,-.152E-5,0
BEIDOU-2 G7,2016-037A,2026-07-20T13:03:38.941344,1.00271028,.00060361,1.8012,69.5510,0.7364,174.4980,0,U,41586,999,722,0,-.355E-5,0
ABS-2A (MONGOLSAT-1),2016-038A,2026-07-20T11:46:21.136224,1.00270798,.00018084,0.0132,63.7753,4.6401,121.1338,0,U,41588,999,3704,0,-.85E-6,0
EUTELSAT 117 WEST B,2016-038B,2026-07-20T09:09:06.014304,1.00270334,.00001683,0.0059,165.5004,7.9060,145.0325,0,U,41589,999,3699,0,-.13E-6,0
BRISAT,2016-039A,2026-07-20T13:11:38.622912,1.00271101,.00020771,0.0114,19.0821,97.3978,170.2430,0,U,41591,999,3694,0,-.198E-5,0
ECHOSTAR 18,2016-039B,2026-07-20T11:07:32.358144,1.00272974,.00016708,0.0191,63.4026,58.6483,281.6976,0,U,41592,999,3695,0,-.283E-5,0
MUOS-5,2016-041A,2026-07-20T10:47:38.598720,1.00273903,.01997806,2.1333,302.3330,260.5189,152.1768,0,U,41622,999,3742,0,-.15E-5,0
TIANTONG-1 1,2016-048A,2026-07-20T15:19:17.122368,1.00272956,.00049269,3.9128,43.6701,57.1002,168.8500,0,U,41725,999,3660,0,-.32E-5,0
JCSAT-16,2016-050A,2026-07-20T14:34:38.605728,1.00271357,.00010533,0.0203,61.2891,56.8312,182.8642,0,U,41729,999,3640,0,-.252E-5,0
USA 270,2016-052A,2026-07-14T10:51:22.391136,1.00267800,.0009408,4.2649,76.8388,101.7031,42.7683,0,U,41744,999,2840,0,-.362E-5,0
USA 271,2016-052B,2026-07-14T02:57:21.919968,1.00268559,.0011085,4.2370,76.9135,165.9764,191.3847,0,U,41745,999,2818,0,-.3E-5,0
INTELSAT 36 (IS-36),2016-053A,2026-07-20T11:44:36.303648,1.00271694,.00024893,0.0096,21.3482,328.2603,193.2959,0,U,41747,999,3629,0,-.26E-6,0
INSAT-3DR,2016-054A,2026-07-20T11:46:06.159648,1.00271451,.00103508,0.0830,89.1419,180.3499,279.2812,0,U,41752,999,3615,0,-.78E-6,0
GSAT-18,2016-060A,2026-07-20T11:46:13.647936,1.00272066,.00054023,0.0481,91.7665,349.0523,107.9652,0,U,41793,999,3586,0,-.78E-6,0
SKY MUSTER 2 (NBN1B),2016-060B,2026-07-20T14:34:38.605728,1.00270478,.000178,0.0159,49.5171,68.8060,183.5232,0,U,41794,999,3585,0,0,0
HIMAWARI-9,2016-064A,2026-07-20T14:34:38.605728,1.00273014,.00017032,0.0199,292.3425,228.4234,137.0075,0,U,41836,999,3554,0,-.276E-5,0
SHIJIAN-17 (SJ-17),2016-065A,2026-07-19T15:24:11.367936,0.99868032,.0002056,5.8334,72.2113,42.4352,241.6363,0,U,41838,999,3552,0,.26E-6,0
GOES 16,2016-071A,2026-07-20T12:16:38.536032,1.00271642,.00006493,0.4174,85.4576,75.5106,216.7751,0,U,41866,999,3543,0,-.92E-6,0
TIANLIAN 1-04,2016-072A,2026-07-20T14:10:15.362976,1.00272081,.00443032,0.9518,82.6856,90.9349,154.0682,0,U,41869,999,3563,0,.29E-6,0
WGS F8 (USA 272),2016-075A,2026-07-20T14:12:38.596032,1.00270982,.00001045,0.0203,55.2157,335.2776,270.8454,0,U,41879,999,3515,0,-.203E-5,0
FENGYUN 4A,2016-077A,2026-07-20T15:25:39.011232,1.00265718,.00082136,2.4057,79.9051,159.5268,54.0510,0,U,41882,999,3526,0,-.359E-5,0
ECHOSTAR 19,2016-079A,2026-07-20T09:12:52.428096,1.00271862,.00014902,0.0181,68.3746,47.8183,223.0824,0,U,41893,999,3503,0,-.14E-5,0
JCSAT-110A (JCSAT-15),2016-082A,2026-07-20T14:15:42.881184,1.00270716,.00006527,0.0183,62.1692,60.0885,140.1007,0,U,41903,999,3509,0,-.352E-5,0
STAR ONE D1,2016-082B,2026-07-20T11:01:10.468416,1.00273344,.00020842,0.0059,352.6905,124.8608,261.9858,0,U,41904,999,3510,0,-.212E-5,0
TJS-2,2017-001A,2026-07-20T11:44:06.351360,1.00272163,.00008371,0.9172,84.8891,91.8028,4.1236,0,U,41911,999,3505,0,-.8E-7,0
SBIRS GEO-4 (USA 273),2017-004A,2026-07-20T07:56:38.811264,1.00280388,.00028124,2.3062,44.1237,67.7359,327.2221,0,U,41937,999,3493,0,.125E-5,0
HISPASAT 36W-1,2017-006A,2026-07-20T09:32:11.300928,1.00271843,.00009131,0.0337,256.0048,222.1249,287.0892,0,U,41942,999,3457,0,-.246E-5,0
TELKOM 3S,2017-007A,2026-07-20T11:58:40.776384,1.00269091,.00025591,0.0197,67.0930,53.5751,115.2849,0,U,41944,999,3447,0,0,0
INTELSAT 32E (IS-32E),2017-007B,2026-07-20T14:00:07.444800,1.00273345,.00006323,0.0128,27.7863,350.1536,87.2632,0,U,41945,999,3456,0,-.27E-5,0
ECHOSTAR 23,2017-014A,2026-07-20T12:08:38.594400,1.00272042,.00021279,0.0198,59.9430,56.7998,253.7899,0,U,42070,999,3425,0,-.58E-6,0
WGS F9 (USA 275),2017-016A,2026-07-20T09:39:03.142944,1.00269311,.00001265,0.0165,53.2112,68.8520,308.9094,0,U,42075,999,3422,0,0,0
SES-10,2017-017A,2026-07-20T11:06:02.502144,1.00272466,.00028302,0.0150,46.9859,74.3319,276.5333,0,U,42432,999,3408,0,-.274E-5,0
CHINASAT 16 (SJ-13),2017-018A,2026-07-20T06:48:38.240352,1.00272872,.00049307,0.0865,88.7982,127.9478,294.0130,0,U,42662,999,3408,0,-.354E-5,0
KOREASAT 7,2017-023A,2026-07-20T13:03:38.941344,1.00272061,.00008077,0.0175,5.6369,109.9251,134.5665,0,U,42691,999,3370,0,-.363E-5,0
SGDC,2017-023B,2026-07-20T09:06:50.735232,1.00272686,.00023142,0.0150,17.1041,102.4213,240.4821,0,U,42692,999,3373,0,-.251E-5,0
GSAT-9,2017-024A,2026-07-20T15:18:32.875200,1.00274517,.00022882,0.0984,90.6748,25.1535,149.5083,0,U,42695,999,3363,0,-.287E-5,0
INMARSAT 5-F4,2017-025A,2026-07-20T11:41:14.126784,1.00271046,.00004272,0.0200,59.9659,98.2083,11.8925,0,U,42698,999,3361,0,.74E-6,0
SES-15,2017-026A,2026-07-20T11:52:38.468352,1.00268526,.00005356,0.0284,321.9208,131.9787,253.3687,0,U,42709,999,776,0,.59E-6,0
QZS-2 (MICHIBIKI-2),2017-028A,2026-07-19T10:28:17.573664,1.00275667,.07569995,39.3809,242.6784,269.6501,84.4438,0,U,42738,999,795,0,-.145E-5,0
VIASAT-2,2017-029A,2026-07-20T11:05:10.084992,1.00271915,.0000507,0.0218,297.3215,216.8707,240.4237,0,U,42740,999,3353,0,-.267E-5,0
EUTELSAT 172B,2017-029B,2026-07-20T13:29:38.877792,1.00270633,.00000513,0.0271,124.0078,311.0235,237.6967,0,U,42741,999,3407,0,-.7E-7,0
GSAT-19,2017-031A,2026-07-20T11:38:44.366208,1.00272002,.00063281,0.0519,89.9191,2.7638,68.1131,0,U,42747,999,3348,0,.124E-5,0
ECHOSTAR 21,2017-032A,2026-07-20T08:02:42.381600,1.00271721,.0002355,1.7704,357.8629,110.1402,321.0253,0,U,42749,999,3343,0,.64E-6,0
BULGARIASAT-1,2017-038A,2026-07-20T08:00:20.110176,1.00272384,.00030218,0.0145,46.8886,78.8809,294.3175,0,U,42801,999,3317,0,.9E-7,0
HELLAS-SAT 3,2017-040A,2026-07-20T11:36:14.605632,1.00274581,.00033077,0.0613,57.3026,23.3347,70.6878,0,U,42814,999,3314,0,.151E-5,0
GSAT-17,2017-040B,2026-07-20T14:33:39.623904,1.00271587,.0002163,0.0480,254.4962,22.8321,332.9422,0,U,42815,999,3312,0,-.258E-5,0
INTELSAT 35E (IS-35E),2017-041A,2026-07-20T14:27:08.942976,1.00272307,.00021341,0.0153,62.7965,54.7632,3.1003,0,U,42818,999,3315,0,-.239E-5,0
COSMOS 2520,2017-046A,2026-07-19T20:18:38.732832,1.00280107,.00008169,0.0382,107.2128,344.1663,195.9735,0,U,42907,999,3272,0,.133E-5,0
TDRS 13,2017-047A,2026-07-20T09:39:10.631232,1.00272355,.00149885,3.4609,3.5498,111.5442,316.4758,0,U,42915,999,3268,0,-.102E-5,0
QZS-3 (MICHIBIKI-3),2017-048A,2026-07-20T12:01:18.024384,1.00270069,.00027627,0.0595,207.1610,279.4565,119.0100,0,U,42917,999,3259,0,-.349E-5,0
AMAZONAS 5,2017-053A,2026-07-20T11:07:39.845568,1.00270664,.00011908,0.0337,320.8985,137.1490,306.0999,0,U,42934,999,3237,0,-.284E-5,0
ASIASAT 9,2017-057A,2026-07-20T06:52:00.417216,1.00275714,.00020459,0.0156,47.3414,64.2903,51.5396,0,U,42942,999,3219,0,-.361E-5,0
INTELSAT 37E (IS-37E),2017-059A,2026-07-20T09:37:18.310368,1.00271270,.00027861,0.0189,64.3238,58.2900,301.8824,0,U,42950,999,3239,0,-.142E-5,0
BSAT-4A,2017-059B,2026-07-20T14:16:37.804800,1.00272686,.00035527,0.0355,346.0962,96.0656,180.1860,0,U,42951,999,3213,0,-.351E-5,0
QZS-4 (MICHIBIKI-4),2017-062A,2026-07-19T17:18:02.105280,1.00289629,.07470384,40.0889,343.0703,268.6623,84.6148,0,U,42965,999,3213,0,-.359E-5,0
SES-11 (ECHOSTAR 105),2017-063A,2026-07-20T12:16:38.536032,1.00271763,.00028637,0.0219,332.6477,134.5059,270.3290,0,U,42967,999,3205,0,-.9E-6,0
KOREASAT 5A,2017-067A,2026-07-20T13:03:38.941344,1.00272990,.00009977,0.0090,345.4930,106.6462,155.2295,0,U,42984,999,3186,0,-.359E-5,0
ALCOMSAT 1,2017-078A,2026-07-20T11:18:01.352736,1.00272534,.00024114,0.0401,263.6064,215.4920,323.8329,0,U,43039,999,3162,0,-.187E-5,0
